[{"OBJECT_NAME":"TIANQI-6","OBJECT_ID":"2020-076D","EPOCH":"2026-03-09T22:50:24.728640","MEAN_MOTION":15.06417552,"ECCENTRICITY":0.00106023,"INCLINATION":34.9994,"RA_OF_ASC_NODE":297.1791,"ARG_OF_PERICENTER":9.4595,"MEAN_ANOMALY":350.6312,"EPHEMERIS_TYPE":0,"CLASSIFICATION_TYPE":"U","NORAD_CAT_ID":46810,"ELEMENT_SET_NO":999,"REV_AT_EPOCH":29360,"BSTAR":0.00037023286,"MEAN_MOTION_DOT":5.552e-5,"MEAN_MOTION_DDOT":0},{"OBJECT_NAME":"STARLINK-35023","OBJECT_ID":"2025-184G","EPOCH":"2026-03-09T17:12:56.350368","MEAN_MOTION":15.05647042,"ECCENTRICITY":0.00010549,"INCLINATION":97.6019,"RA_OF_ASC_NODE":122.6676,"ARG_OF_PERICENTER":93.352,"MEAN_ANOMALY":266.7828,"EPHEMERIS_TYPE":0,"CLASSIFICATION_TYPE":"U","NORAD_CAT_ID":65279,"ELEMENT_SET_NO":999,"REV_AT_EPOCH":3130,"BSTAR":0.00019345439,"MEAN_MOTION_DOT":2.731e-5,"MEAN_MOTION_DDOT":0}]
